NORAD_CAT_ID,OBJECT_NAME,OBJECT_TYPE,EPOCH,MEAN_MOTION,ECCENTRICITY,INCLINATION,RA_OF_ASC_NODE,ARG_OF_PERICENTER,MEAN_ANOMALY,BSTAR,MEAN_MOTION_DOT,MEAN_MOTION_DDOT,TLE_LINE0,TLE_LINE1,TLE_LINE2,SEMIMAJOR_AXIS,PERIOD,APOGEE,PERIGEE,DECAYED
55635.0,STARLINK-5495,PAYLOAD,2023-07-31 23:50:08,14.98334934,0.0003163,69.9985,64.1325,267.7732,92.3064,-5.3678e-05,-7.34e-06,0.0,0 STARLINK-5495,1 55635U 23021H   23212.99315176 -.00000734  00000-0 -53678-4 0  9992,2 55635  69.9985  64.1325 0003163 267.7732  92.3064 14.98334934 25931,6950.178,96.107,574.241,569.844,0.0
55635.0,STARLINK-5495,PAYLOAD,2023-08-01 23:52:09,14.98331846,0.0003028,69.9985,61.6071,267.1242,92.9571,3.6633e-05,3.44e-06,0.0,0 STARLINK-5495,1 55635U 23021H   23213.99455088  .00000344  00000-0  36633-4 0  9997,2 55635  69.9985  61.6071 0003028 267.1242  92.9571 14.98331846 26086,6950.187,96.107,574.157,569.948,0.0
55635.0,STARLINK-5495,PAYLOAD,2023-08-02 23:54:09,14.98333325,0.0003121,69.9987,59.0824,267.9324,92.1478,4.8112e-05,4.81e-06,0.0,0 STARLINK-5495,1 55635U 23021H   23214.99594885  .00000481  00000-0  48112-4 0  9994,2 55635  69.9987  59.0824 0003121 267.9324  92.1478 14.98333325 26237,6950.183,96.107,574.217,569.878,0.0
55635.0,STARLINK-5495,PAYLOAD,2023-08-03 23:56:10,14.98331862,0.0003006,69.9992,56.5575,267.7108,92.3706,2.5449e-05,2.11e-06,0.0,0 STARLINK-5495,1 55635U 23021H   23215.99734877  .00000211  00000-0  25449-4 0  9991,2 55635  69.9992  56.5575 0003006 267.7108  92.3706 14.98331862 26384,6950.187,96.107,574.141,569.963,0.0
55635.0,STARLINK-5495,PAYLOAD,2023-08-04 22:22:04,14.9832819,0.000293,69.9995,54.2013,264.5992,95.4833,-3.9593e-05,-5.65e-06,0.0,0 STARLINK-5495,1 55635U 23021H   23216.93199246 -.00000565  00000-0 -39593-4 0  9990,2 55635  69.9995  54.2013 0002930 264.5992  95.4833 14.98328190 26521,6950.198,96.107,574.1,570.027,0.0
55635.0,STARLINK-5495,PAYLOAD,2023-08-05 17:35:40,14.98333492,0.0003006,69.9995,52.1809,264.6767,95.4049,2.651e-05,2.23e-06,0.0,0 STARLINK-5495,1 55635U 23021H   23217.73310614  .00000223  00000-0  26510-4 0  9997,2 55635  69.9995  52.1809 0003006 264.6767  95.4049 14.98333492 26640,6950.182,96.107,574.136,569.958,0.0
55635.0,STARLINK-5495,PAYLOAD,2023-08-06 06:24:45,14.98328791,0.0003066,69.9995,50.8333,273.4894,86.5914,-3.6574e-05,-5.29e-06,0.0,0 STARLINK-5495,1 55635U 23021H   23218.26719031 -.00000529  00000-0 -36574-4 0  9994,2 55635  69.9995  50.8333 0003066 273.4894  86.5914 14.98328791 26729,6950.197,96.107,574.193,569.931,0.0
55635.0,STARLINK-5495,PAYLOAD,2023-08-06 19:13:50,14.98319896,0.0003091,69.9993,49.4863,271.7602,88.3203,-6.5961e-05,-8.8e-06,0.0,0 STARLINK-5495,1 55635U 23021H   23218.80127867 -.00000880  00000-0 -65961-4 0  9996,2 55635  69.9993  49.4863 0003091 271.7602  88.3203 14.98319896 26801,6950.224,96.108,574.237,569.941,0.0
55635.0,STARLINK-5495,PAYLOAD,2023-08-07 19:15:51,14.98329007,0.0003195,69.9996,46.9621,269.3608,90.7185,-1.9942e-05,-3.31e-06,0.0,0 STARLINK-5495,1 55635U 23021H   23219.80267505 -.00000331  00000-0 -19942-4 0  9990,2 55635  69.9996  46.9621 0003195 269.3608  90.7185 14.98329007 26959,6950.196,96.107,574.282,569.84,0.0
55635.0,STARLINK-5495,PAYLOAD,2023-08-09 00:06:15,14.98335615,0.0003304,69.9995,43.9318,271.8797,88.1984,0.00019315,2.213e-05,0.0,0 STARLINK-5495,1 55635U 23021H   23221.00434381  .00002213  00000-0  19315-3 0  9995,2 55635  69.9995  43.9318 0003304 271.8797  88.1984 14.98335615 27138,6950.176,96.107,574.337,569.744,0.0
55635.0,STARLINK-5495,PAYLOAD,2023-08-09 14:31:28,14.98329469,0.0003151,69.9998,42.4169,272.001,88.0788,-1.24e-05,-2.41e-06,0.0,0 STARLINK-5495,1 55635U 23021H   23221.60519318 -.00000241  00000-0 -12400-4 0  9995,2 55635  69.9998  42.4169 0003151 272.0010  88.0788 14.98329469 27221,6950.195,96.107,574.25,569.87,0.0
55635.0,STARLINK-5495,PAYLOAD,2023-08-10 17:45:45,14.98335207,0.0003033,70.0002,39.5558,270.5117,89.5695,-8.4635e-05,-1.103e-05,0.0,0 STARLINK-5495,1 55635U 23021H   23222.74010934 -.00001103  00000-0 -84635-4 0  9998,2 55635  70.0002  39.5558 0003033 270.5117  89.5695 14.98335207 27397,6950.177,96.107,574.15,569.934,0.0
55635.0,STARLINK-5495,PAYLOAD,2023-08-11 04:58:42,14.98296814,0.0002932,70.0003,38.3775,274.4813,85.6011,0.0005329,6.266e-05,0.0,0 STARLINK-5495,1 55635U 23021H   23223.20743834  .00006266  00000-0  53290-3 0  9997,2 55635  70.0003  38.3775 0002932 274.4813  85.6011 14.98296814 27466,6950.296,96.109,574.198,570.123,0.0
55635.0,STARLINK-5495,PAYLOAD,2023-08-11 17:47:46,14.98330011,0.0003207,70.0,37.0303,271.954,88.1251,3.0686e-06,-5.6e-07,0.0,0 STARLINK-5495,1 55635U 23021H   23223.74150817 -.00000056  00000-0  30686-5 0  9997,2 55635  70.0000  37.0303 0003207 271.9540  88.1251 14.98330011 27542,6950.193,96.107,574.287,569.829,0.0
55635.0,STARLINK-5495,PAYLOAD,2023-08-12 17:49:47,14.98330345,0.0003338,70.0001,34.5061,272.0805,87.9972,-3.5439e-06,-1.35e-06,0.0,0 STARLINK-5495,1 55635U 23021H   23224.74290762 -.00000135  00000-0 -35439-5 0  9992,2 55635  70.0001  34.5061 0003338 272.0805  87.9972 14.98330345 27690,6950.192,96.107,574.377,569.737,0.0
55635.0,STARLINK-5495,PAYLOAD,2023-08-13 17:51:48,14.98328559,0.0003301,70.0001,31.9805,270.3081,89.7699,-2.499e-05,-3.91e-06,0.0,0 STARLINK-5495,1 55635U 23021H   23225.74430951 -.00000391  00000-0 -24990-4 0  9992,2 55635  70.0001  31.9805 0003301 270.3081  89.7699 14.98328559 27841,6950.197,96.107,574.357,569.768,0.0
55635.0,STARLINK-5495,PAYLOAD,2023-08-14 17:53:48,14.9833235,0.000329,70.0003,29.4555,270.5061,89.5721,3.6464e-05,3.42e-06,0.0,0 STARLINK-5495,1 55635U 23021H   23226.74570533  .00000342  00000-0  36464-4 0  9997,2 55635  70.0003  29.4555 0003290 270.5061  89.5721 14.98332350 27998,6950.186,96.107,574.337,569.764,0.0
55635.0,STARLINK-5495,PAYLOAD,2023-08-16 03:32:38,14.98333464,0.0003293,70.0008,25.9206,271.1064,88.9718,3.6318e-05,3.4e-06,0.0,0 STARLINK-5495,1 55635U 23021H   23228.14766280  .00000340  00000-0  36318-4 0  9995,2 55635  70.0008  25.9206 0003293 271.1064  88.9718 14.98333464 28201,6950.182,96.107,574.336,569.758,0.0
55635.0,STARLINK-5495,PAYLOAD,2023-08-17 09:59:11,14.98331754,0.0003016,70.0004,22.7227,268.825,91.2563,-2.3009e-05,-3.68e-06,0.0,0 STARLINK-5495,1 55635U 23021H   23229.41610447 -.00000368  00000-0 -23009-4 0  9994,2 55635  70.0004  22.7227 0003016 268.8250  91.2563 14.98331754 28393,6950.187,96.107,574.149,569.956,0.0
55635.0,STARLINK-5495,PAYLOAD,2023-08-18 10:01:12,14.98320292,0.0003096,69.9986,20.1976,268.6794,91.4011,9.0133e-05,9.82e-06,0.0,0 STARLINK-5495,1 55635U 23021H   23230.41750761  .00000982  00000-0  90133-4 0  9992,2 55635  69.9986  20.1976 0003096 268.6794  91.4011 14.98320292 28543,6950.223,96.108,574.24,569.936,0.0
55635.0,STARLINK-5495,PAYLOAD,2023-08-18 19:38:00,14.98330972,0.0003292,69.9999,19.1871,269.566,90.5122,1.1888e-05,4.9e-07,0.0,0 STARLINK-5495,1 55635U 23021H   23230.81806315  .00000049  00000-0  11888-4 0  9997,2 55635  69.9999  19.1871 0003292 269.5660  90.5122 14.98330972 28605,6950.19,96.107,574.343,569.767,0.0
55635.0,STARLINK-5495,PAYLOAD,2023-08-19 10:03:13,14.98319281,0.0003247,69.9998,17.6722,268.8463,91.2324,4.3691e-05,4.28e-06,0.0,0 STARLINK-5495,1 55635U 23021H   23231.41890987  .00000428  00000-0  43691-4 0  9990,2 55635  69.9998  17.6722 0003247 268.8463  91.2324 14.98319281 28696,6950.226,96.108,574.348,569.834,0.0
55635.0,STARLINK-5495,PAYLOAD,2023-08-19 19:40:01,14.98329319,0.0003154,69.9999,16.6617,267.5605,92.5193,-1.5892e-05,-2.83e-06,0.0,0 STARLINK-5495,1 55635U 23021H   23231.81946596 -.00000283  00000-0 -15892-4 0  9995,2 55635  69.9999  16.6617 0003154 267.5605  92.5193 14.98329319 28758,6950.195,96.107,574.252,569.868,0.0
55635.0,STARLINK-5495,PAYLOAD,2023-08-20 18:05:53,14.98355065,0.0002859,70.0008,14.3059,272.185,87.8982,-0.00024841,-3.058e-05,0.0,0 STARLINK-5495,1 55635U 23021H   23232.75409524 -.00003058  00000-0 -24841-3 0  9990,2 55635  70.0008  14.3059 0002859 272.1850  87.8982 14.98355065 28897,6950.115,96.105,573.967,569.993,0.0
55635.0,STARLINK-5495,PAYLOAD,2023-08-20 19:42:02,14.98336277,0.0003252,70.0006,14.1371,269.1791,90.8995,0.00011845,1.321e-05,0.0,0 STARLINK-5495,1 55635U 23021H   23232.82085717  .00001321  00000-0  11845-3 0  9991,2 55635  70.0006  14.1371 0003252 269.1791  90.8995 14.98336277 28902,6950.173,96.107,574.299,569.778,0.0
55635.0,STARLINK-5495,PAYLOAD,2023-08-21 11:43:23,14.98327397,0.0003193,70.0009,12.4545,271.1571,88.9222,3.4864e-05,3.23e-06,0.0,0 STARLINK-5495,1 55635U 23021H   23233.48846422  .00000323  00000-0  34864-4 0  9990,2 55635  70.0009  12.4545 0003193 271.1571  88.9222 14.98327397 29008,6950.201,96.107,574.285,569.847,0.0
55635.0,STARLINK-5495,PAYLOAD,2023-08-21 19:44:03,14.98334328,0.0003378,70.0008,11.6131,274.8539,85.2234,6.8594e-05,7.26e-06,0.0,0 STARLINK-5495,1 55635U 23021H   23233.82225889  .00000726  00000-0  68594-4 0  9990,2 55635  70.0008  11.6131 0003378 274.8539  85.2234 14.98334328 29058,6950.18,96.107,574.392,569.697,0.0
55635.0,STARLINK-5495,PAYLOAD,2023-08-22 10:09:16,14.9832583,0.0002797,70.0023,10.0991,268.6526,91.4313,1.6289e-05,1.01e-06,0.0,0 STARLINK-5495,1 55635U 23021H   23234.42310561  .00000101  00000-0  16289-4 0  9990,2 55635  70.0023  10.0991 0002797 268.6526  91.4313 14.98325830 29148,6950.206,96.107,574.015,570.127,0.0
55635.0,STARLINK-5495,PAYLOAD,2023-08-23 11:47:25,14.98333369,0.0003141,70.0019,7.4043,277.6416,82.4386,-5.9778e-05,-8.06e-06,0.0,0 STARLINK-5495,1 55635U 23021H   23235.49126347 -.00000806  00000-0 -59778-4 0  9999,2 55635  70.0019   7.4043 0003141 277.6416  82.4386 14.98333369 29307,6950.182,96.107,574.231,569.864,0.0
55635.0,STARLINK-5495,PAYLOAD,2023-08-24 13:25:34,14.98321742,0.000312,70.0013,4.7108,271.4347,88.6455,-5.2604e-05,-7.2e-06,0.0,0 STARLINK-5495,1 55635U 23021H   23236.55943034 -.00000720  00000-0 -52604-4 0  9993,2 55635  70.0013   4.7108 0003120 271.4347  88.6455 14.98321742 29469,6950.218,96.108,574.252,569.915,0.0
